[{"OBJECT_NAME":"STARLINK-30902","OBJECT_ID":"2023-180V","EPOCH":"2026-03-08T08:42:56.560896","MEAN_MOTION":15.27248303,"ECCENTRICITY":0.00016664,"INCLINATION":43.0021,"RA_OF_ASC_NODE":59.988,"ARG_OF_PERICENTER":292.4391,"MEAN_ANOMALY":67.6284,"EPHEMERIS_TYPE":0,"CLASSIFICATION_TYPE":"U","NORAD_CAT_ID":58421,"ELEMENT_SET_NO":999,"REV_AT_EPOCH":12731,"BSTAR":0.0021800837,"MEAN_MOTION_DOT":0.00059609,"MEAN_MOTION_DDOT":0},{"OBJECT_NAME":"ARCSTONE","OBJECT_ID":"2025-135N","EPOCH":"2026-03-09T21:21:29.017152","MEAN_MOTION":15.28638458,"ECCENTRICITY":0.00041199,"INCLINATION":97.4495,"RA_OF_ASC_NODE":185.9194,"ARG_OF_PERICENTER":166.7863,"MEAN_ANOMALY":193.3485,"EPHEMERIS_TYPE":0,"CLASSIFICATION_TYPE":"U","NORAD_CAT_ID":64540,"ELEMENT_SET_NO":999,"REV_AT_EPOCH":3984,"BSTAR":0.00094899777,"MEAN_MOTION_DOT":0.00026427,"MEAN_MOTION_DDOT":0}]
